NORAD_CAT_ID,OBJECT_NAME,OBJECT_TYPE,EPOCH,MEAN_MOTION,ECCENTRICITY,INCLINATION,RA_OF_ASC_NODE,ARG_OF_PERICENTER,MEAN_ANOMALY,BSTAR,MEAN_MOTION_DOT,MEAN_MOTION_DDOT,TLE_LINE0,TLE_LINE1,TLE_LINE2,SEMIMAJOR_AXIS,PERIOD,APOGEE,PERIGEE,DECAYED
49732.0,STARLINK-3246,PAYLOAD,2022-05-09 14:00:01,15.08878402,0.0001836,53.2127,324.444,45.8078,193.015,0.00050005,7.688e-05,0.0,0 STARLINK-3246,1 49732U 21115J   22129.58335648  .00007688  00000-0  50005-3 0  9995,2 49732  53.2127 324.4440 0001836  45.8078 193.0150 15.08878402 25131,6917.763000000001,95.435,540.898,538.3580000000002,0.0
49732.0,STARLINK-3246,PAYLOAD,2022-05-09 22:00:00,15.08869008,0.0002025,53.2127,322.9491,39.5094,210.8997,-0.00037418,-6.243e-05,0.0,0 STARLINK-3246,1 49732U 21115J   22129.91667824 -.00006243  00000-0 -37418-3 0  9997,2 49732  53.2127 322.9491 0002025  39.5094 210.8997 15.08869008  3594,6917.792,95.436,541.058,538.256,0.0
49732.0,STARLINK-3246,PAYLOAD,2022-05-10 06:00:00,15.08878544,0.0001895,53.2128,321.451,40.7491,221.2861,-0.0036749,-0.00058363,0.0,0 STARLINK-3246,1 49732U 21115J   22130.25001157 -.00058363  00000-0 -36749-2 0  9992,2 49732  53.2128 321.4510 0001895  40.7491 221.2861 15.08878544 25236,6917.763000000001,95.435,540.938,538.317,0.0
49732.0,STARLINK-3246,PAYLOAD,2022-05-10 14:00:01,15.08852211,0.0001921,53.2129,319.9543,46.2856,227.3613,0.00014856,2.078e-05,0.0,0 STARLINK-3246,1 49732U 21115J   22130.58334491  .00002078  00000-0  14856-3 0  9994,2 49732  53.2129 319.9543 0001921  46.2856 227.3613 15.08852211  3603,6917.843000000003,95.437,541.0369999999998,538.379,0.0
49732.0,STARLINK-3246,PAYLOAD,2022-05-10 18:00:00,15.08858003,0.000204,53.2127,319.2071,43.0577,56.3935,-0.0011431,-0.00018444,0.0,0 STARLINK-3246,1 49732U 21115J   22130.75001157 -.00018444  00000-0 -11431-2 0  9994,2 49732  53.2127 319.2071 0002040  43.0577  56.3935 15.08858003 25301,6917.825,95.436,541.102,538.279,0.0
49732.0,STARLINK-3246,PAYLOAD,2022-05-11 22:00:00,15.08831561,0.0002057,53.2129,313.9698,39.1497,280.9153,0.0022541,0.00035761,0.0,0 STARLINK-3246,1 49732U 21115J   22131.91667824  .00035761  00000-0  22541-2 0  9995,2 49732  53.2129 313.9698 0002057  39.1497 280.9153 15.08831561 25480,6917.906,95.438,541.194,538.3480000000002,0.0
49732.0,STARLINK-3246,PAYLOAD,2022-05-12 06:00:00,15.08840844,0.00019,53.2128,312.4717,44.04,287.6039,8.345600000000001e-05,1.04e-05,0.0,0 STARLINK-3246,1 49732U 21115J   22132.25001157  .00001040  00000-0  83456-4 0  9991,2 49732  53.2128 312.4717 0001900  44.0400 287.6039 15.08840844 25537,6917.878000000002,95.438,541.057,538.428,0.0
49732.0,STARLINK-3246,PAYLOAD,2022-05-12 14:00:01,15.08879784,0.0001842,53.213,310.9752,45.28100000000001,297.9599,-0.0029446,-0.00046898,0.0,0 STARLINK-3246,1 49732U 21115J   22132.58334491 -.00046898  00000-0 -29446-2 0  9996,2 49732  53.2130 310.9752 0001842  45.2810 297.9599 15.08879784  1304,6917.759,95.435,540.898,538.35,0.0
49732.0,STARLINK-3246,PAYLOAD,2022-05-12 22:00:00,15.08817565,0.0001998,53.2126,309.4801,39.5262,315.3471,0.0032586,0.00051924,0.0,0 STARLINK-3246,1 49732U 21115J   22132.91667824  .00051924  00000-0  32586-2 0  9995,2 49732  53.2126 309.4801 0001998  39.5262 315.3471 15.08817565  1309,6917.949000000001,95.439,541.196,538.432,0.0
49732.0,STARLINK-3246,PAYLOAD,2022-05-13 14:00:01,15.08845362,0.0001878,53.2125,306.4855,46.6875,331.3757,-0.001063,-0.00017169,0.0,0 STARLINK-3246,1 49732U 21115J   22133.58334491 -.00017169  00000-0 -10630-2 0  9991,2 49732  53.2125 306.4855 0001878  46.6875 331.3757 15.08845362 25734,6917.864000000001,95.437,541.028,538.43,0.0
49732.0,STARLINK-3246,PAYLOAD,2022-05-13 22:00:00,15.08829656,0.0002011,53.2121,304.9903,41.073,348.5896,0.00041402,6.305e-05,0.0,0 STARLINK-3246,1 49732U 21115J   22133.91667824  .00006305  00000-0  41402-3 0  9997,2 49732  53.2121 304.9903 0002011  41.0730 348.5896 15.08829656  1305,6917.9119999999975,95.438,541.168,538.386,0.0
49732.0,STARLINK-3246,PAYLOAD,2022-05-14 14:00:01,15.08851227,0.0001824,53.2139,301.9958,44.506,8.318999999999999,-0.00085023,-0.00013798,0.0,0 STARLINK-3246,1 49732U 21115J   22134.58334491 -.00013798  00000-0 -85023-3 0  9995,2 49732  53.2139 301.9958 0001824  44.5060   8.3190 15.08851227 25882,6917.846,95.437,540.9730000000002,538.4490000000002,0.0
49732.0,STARLINK-3246,PAYLOAD,2022-05-14 22:00:00,15.08834394,0.0001959,53.2136,300.5005,38.6114,25.8166,0.0017099,0.00027026,0.0,0 STARLINK-3246,1 49732U 21115J   22134.91667824  .00027026  00000-0  17099-2 0  9995,2 49732  53.2136 300.5005 0001959  38.6114  25.8166 15.08834394  1304,6917.898,95.438,541.118,538.4069999999998,0.0
49732.0,STARLINK-3246,PAYLOAD,2022-05-15 14:00:01,15.08869664,0.000179,53.2136,297.5061,41.3628,46.3156,-0.0029818,-0.0004747,0.0,0 STARLINK-3246,1 49732U 21115J   22135.58335648 -.00047470  00000-0 -29818-2 0  9994,2 49732  53.2136 297.5061 0001790  41.3628  46.3156 15.08869664 26037,6917.79,95.436,540.893,538.4159999999998,0.0
49732.0,STARLINK-3246,PAYLOAD,2022-05-15 22:00:00,15.08827699,0.0001943,53.2134,296.0106,35.5238,63.7169,0.00039547,6.009e-05,0.0,0 STARLINK-3246,1 49732U 21115J   22135.91667824  .00006009  00000-0  39547-3 0  9997,2 49732  53.2134 296.0106 0001943  35.5238  63.7169 15.08827699  1303,6917.918000000002,95.438,541.127,538.439,0.0
49732.0,STARLINK-3246,PAYLOAD,2022-05-16 06:00:02,15.08801808,0.0001783,53.2136,294.5122,40.3789,70.5133,0.0028662,0.00045575,0.0,0 STARLINK-3246,1 49732U 21115J   22136.25002315  .00045575  00000-0  28662-2 0  9999,2 49732  53.2136 294.5122 0001783  40.3789  70.5133 15.08801808 26132,6917.996999999999,95.44,541.096,538.629,0.0
49732.0,STARLINK-3246,PAYLOAD,2022-05-16 14:00:01,15.08850981,0.0001888,53.2138,293.0164,41.1733,81.2124,-0.0020426,-0.0003266,0.0,0 STARLINK-3246,1 49732U 21115J   22136.58334491 -.00032660  00000-0 -20426-2 0  9991,2 49732  53.2138 293.0164 0001888  41.1733  81.2124 15.08850981  1305,6917.847,95.437,541.018,538.406,0.0
49732.0,STARLINK-3246,PAYLOAD,2022-05-16 22:00:00,15.08813697,0.0002007,53.2137,291.5209,34.1428,99.8487,0.0022724,0.00036037,0.0,0 STARLINK-3246,1 49732U 21115J   22136.91667824  .00036037  00000-0  22724-2 0  9990,2 49732  53.2137 291.5209 0002007  34.1428  99.8487 15.08813697 26244,6917.9609999999975,95.439,541.214,538.437,0.0
49732.0,STARLINK-3246,PAYLOAD,2022-05-17 14:00:01,15.08874805,0.0001922,53.2144,288.527,37.7377,119.4864,-0.0029135,-0.00046403,0.0,0 STARLINK-3246,1 49732U 21115J   22137.58335648 -.00046403  00000-0 -29135-2 0  9993,2 49732  53.2144 288.5270 0001922  37.7377 119.4864 15.08874805  1309,6917.774,95.435,540.969,538.309,0.0
49732.0,STARLINK-3246,PAYLOAD,2022-05-17 20:00:01,15.08847218,0.0002064,53.2144,287.4057,33.7036,42.188,-0.00030465,-5.135e-05,0.0,0 STARLINK-3246,1 49732U 21115J   22137.83334491 -.00005135  00000-0 -30465-3 0  9992,2 49732  53.2144 287.4057 0002064  33.7036  42.1880 15.08847218 26378,6917.858,95.437,541.151,538.295,0.0
49732.0,STARLINK-3246,PAYLOAD,2022-05-17 22:00:01,15.08847522,0.0002082,53.2142,287.0313,32.8077,136.0485,-0.00071998,-0.00011731,0.0,0 STARLINK-3246,1 49732U 21115J   22137.91668981 -.00011731  00000-0 -71998-3 0  9990,2 49732  53.2142 287.0313 0002082  32.8077 136.0485 15.08847522  1300,6917.857,95.437,541.163,538.2819999999998,0.0
49732.0,STARLINK-3246,PAYLOAD,2022-05-18 12:00:00,15.08829632,0.0002063,53.2149,284.4114,42.0596,56.9941,9.859e-05,1.281e-05,0.0,0 STARLINK-3246,1 49732U 21115J   22138.50001157  .00001281  00000-0  98590-4 0  9997,2 49732  53.2149 284.4114 0002063  42.0596  56.9941 15.08829632 26479,6917.9119999999975,95.438,541.2040000000002,538.35,0.0
49732.0,STARLINK-3246,PAYLOAD,2022-05-18 14:00:01,15.08832194,0.0002124,53.2149,284.0379,40.5136,151.4352,-0.00025887,-4.405e-05,0.0,0 STARLINK-3246,1 49732U 21115J   22138.58334491 -.00004405  00000-0 -25887-3 0  9996,2 49732  53.2149 284.0379 0002124  40.5136 151.4352 15.08832194  1308,6917.904,95.438,541.239,538.3,0.0
49732.0,STARLINK-3246,PAYLOAD,2022-05-18 22:00:00,15.08837524,0.0002229,53.2146,282.5422,36.431,167.101,0.0014229,0.00022429,0.0,0 STARLINK-3246,1 49732U 21115J   22138.91667824  .00022429  00000-0  14229-2 0  9993,2 49732  53.2146 282.5422 0002229  36.4310 167.1010 15.08837524  1308,6917.888000000001,95.438,541.295,538.211,0.0
49732.0,STARLINK-3246,PAYLOAD,2022-05-19 14:00:01,15.08859837,0.0002039,53.215,279.5489,35.8857,190.8995,-0.0032785,-0.00052118,0.0,0 STARLINK-3246,1 49732U 21115J   22139.58335648 -.00052118  00000-0 -32785-2 0  9990,2 49732  53.2150 279.5489 0002039  35.8857 190.8995 15.08859837  1306,6917.82,95.436,541.095,538.274,0.0
49732.0,STARLINK-3246,PAYLOAD,2022-05-19 22:00:00,15.08845125,0.0002089,53.2146,278.0531,30.3974,207.9244,-0.0011178,-0.00018037,0.0,0 STARLINK-3246,1 49732U 21115J   22139.91667824 -.00018037  00000-0 -11178-2 0  9996,2 49732  53.2146 278.0531 0002089  30.3974 207.9244 15.08845125 26699,6917.865,95.437,541.175,538.285,0.0
49732.0,STARLINK-3246,PAYLOAD,2022-05-20 14:00:01,15.08862679,0.0002012,53.2147,275.06,33.0764,228.4269,-0.0021646,-0.00034595,0.0,0 STARLINK-3246,1 49732U 21115J   22140.58334491 -.00034595  00000-0 -21646-2 0  9990,2 49732  53.2147 275.0600 0002012  33.0764 228.4269 15.08862679 26796,6917.811,95.436,541.068,538.284,0.0
49732.0,STARLINK-3246,PAYLOAD,2022-05-20 22:00:00,15.08851858,0.0002174,53.2141,273.5639,33.1658,239.9495,-0.0032584,-0.00051792,0.0,0 STARLINK-3246,1 49732U 21115J   22140.91667824 -.00051792  00000-0 -32584-2 0  9997,2 49732  53.2141 273.5639 0002174  33.1658 239.9495 15.08851858  1302,6917.844,95.437,541.2130000000002,538.205,0.0
49732.0,STARLINK-3246,PAYLOAD,2022-05-21 06:00:00,15.08795832,0.000203,53.2141,272.0659,39.7614,244.956,0.0044177,0.0007064,0.0,0 STARLINK-3246,1 49732U 21115J   22141.25001157  .00070640  00000-0  44177-2 0  9998,2 49732  53.2141 272.0659 0002030  39.7614 244.9560 15.08795832  1301,6918.015,95.44,541.285,538.476,0.0
